27704,NAVSTAR 52 (USA 168),2003,717.95,2217.0,-,55.03,Inactive,1,MEO,USA,USA,Commercial/Military,Navigation (Global or Regional Positioning),Delta,1 27704U 03010A   25052.34972549 -.00000088  00000+0  00000+0 0  9996,2 27704  55.0333 343.7251 0260937 334.7378 153.1274  2.00571704160464,2.00571704,0.0260937,MEO
25933,NAVSTAR 46 (USA 145),1999,717.98,2217.0,B,51.87,Active,1,MEO,USA,USA,Commercial/Military,Navigation (Global or Regional Positioning),Delta,1 25933U 99055A   25062.33545828 -.00000060  00000+0  00000+0 0  9998,2 25933  51.8737 315.9963 0115256 159.6430 342.8397  2.00561380186139,2.0056138,0.0115256,MEO
26360,NAVSTAR 47 (USA 150),2000,717.99,2217.0,+,54.87,Active,1,MEO,USA,USA,Commercial/Military,Navigation (Global or Regional Positioning),Delta,1 26360U 00025A   25062.59750007 -.00000053  00000+0  00000+0 0  9999,2 26360  54.8657  38.3335 0038479 230.8569 260.6301  2.00558626181836,2.00558626,0.0038479,MEO
26407,NAVSTAR 48 (USA 151),2000,717.98,2217.0,+,54.97,Active,1,MEO,USA,USA,Commercial/Military,Navigation (Global or Regional Positioning),Delta,1 26407U 00040A   25062.59241473  .00000056  00000+0  00000+0 0  9992,2 26407  54.9737 233.8613 0134679 298.4936  26.9572  2.00564033180501,2.00564033,0.0134679,MEO
26605,NAVSTAR 49 (USA 154),2000,717.98,2217.0,P,55.37,Active,1,MEO,USA,USA,Commercial/Military,Navigation (Global or Regional Positioning),Delta,1 26605U 00071A   25062.33669383  .00000016  00000+0  00000+0 0  9998,2 26605  55.3745 113.5642 0163403 262.0041 168.6892  2.00561831178073,2.00561831,0.0163403,MEO
26690,NAVSTAR 50 (USA 156),2001,751.61,2217.0,B,54.84,Active,1,MEO,USA,USA,Commercial/Military,Navigation (Global or Regional Positioning),Delta,1 26690U 01004A   25061.05353720 -.00000032  00000+0  00000+0 0  9991,2 26690  54.8434  49.9995 0002884 347.7089 191.3598  1.91587949174492,1.91587949,0.0002884,MEO
27663,NAVSTAR 51 (USA 166),2003,717.99,2217.0,+,55.01,Active,1,MEO,USA,USA,Commercial/Military,Navigation (Global or Regional Positioning),Delta,1 27663U 03005A   25062.46017465  .00000056  00000+0  00000+0 0  9999,2 27663  55.0095 233.6768 0143532  49.7474 321.0043  2.00560005161872,2.00560005,0.0143532,MEO
28129,NAVSTAR 53 (USA 175),2003,717.96,-1.0,B,54.72,Active,0,MEO,USA,USA,Unknown,Unknown,Unknown,1 28129U 03058A   25061.73227824 -.00000048  00000+0  00000+0 0  9998,2 28129  54.7177  40.8166 0070573 347.6555  12.1672  2.00568548155331,2.00568548,0.0070573,MEO
28190,NAVSTAR 54 (USA 177),2004,717.95,2217.0,+,55.23,Active,1,MEO,USA,USA,Commercial/Military,Navigation (Global or Regional Positioning),Delta,1 28190U 04009A   25061.43000149 -.00000013  00000+0  00000+0 0  9991,2 28190  55.2291 294.6977 0101147 156.9712 344.6127  2.00570356153481,2.00570356,0.0101147,MEO
28361,NAVSTAR 55 (USA 178),2004,717.99,-1.0,B,54.56,Active,0,MEO,USA,USA,Unknown,Unknown,Unknown,1 28361U 04023A   25059.59713322  .00000038  00000+0  00000+0 0  9991,2 28361  54.5551 105.8726 0154995 288.1224 146.9971  2.00559338151566,2.00559338,0.0154995,MEO
28474,NAVSTAR 56 (USA 180),2004,717.64,2217.0,+,55.36,Active,1,MEO,USA,USA,Commercial/Military,Navigation (Global or Regional Positioning),Delta,1 28474U 04045A   25057.27891498 -.00000074  00000+0  00000+0 0  9995,2 28474  55.3623 344.0308 0164349 300.5074 134.4672  2.00657055148885,2.00657055,0.0164349,MEO
28874,NAVSTAR 57 (USA 183),2005,717.96,2217.0,+,55.27,Active,1,MEO,USA,USA,Commercial/Military,Navigation (Global or Regional Positioning),Delta,1 28874U 05038A   25062.37210392 -.00000013  00000+0  00000+0 0  9990,2 28874  55.2730 292.1294 0133816 289.3923 198.8642  2.00567660142399,2.0056766,0.0133816,MEO
29486,NAVSTAR 58 (USA 190),2006,717.96,2060.0,+,54.68,Active,1,MEO,USA,USA,Commercial/Military,Navigation (Global or Regional Positioning),Delta,1 29486U 06042A   25062.34894398  .00000028  00000+0  00000+0 0  9992,2 29486  54.6802 170.0177 0104635  45.2804 326.3826  2.00568371134955,2.00568371,0.0104635,MEO
