[
    {
        "OBJECT_NAME": "NAVSTAR 46 (USA 145)",
        "OBJECT_ID": "1999-055A",
        "EPOCH": "2025-03-03T08:03:03.595392",
        "MEAN_MOTION": 2.0056138,
        "ECCENTRICITY": 0.0115256,
        "INCLINATION": 51.8737,
        "RA_OF_ASC_NODE": 315.9963,
        "ARG_OF_PERICENTER": 159.643,
        "MEAN_ANOMALY": 342.8397,
        "EPHEMERIS_TYPE": 0,
        "CLASSIFICATION_TYPE": "U",
        "NORAD_CAT_ID": 25933,
        "ELEMENT_SET_NO": 999,
        "REV_AT_EPOCH": 18613,
        "BSTAR": 0,
        "MEAN_MOTION_DOT": -6e-07,
        "MEAN_MOTION_DDOT": 0
    },
    {
        "OBJECT_NAME": "NAVSTAR 47 (USA 150)",
        "OBJECT_ID": "2000-025A",
        "EPOCH": "2025-03-03T14:20:24.006048",
        "MEAN_MOTION": 2.00558626,
        "ECCENTRICITY": 0.0038479,
        "INCLINATION": 54.8657,
        "RA_OF_ASC_NODE": 38.3335,
        "ARG_OF_PERICENTER": 230.8569,
        "MEAN_ANOMALY": 260.6301,
        "EPHEMERIS_TYPE": 0,
        "CLASSIFICATION_TYPE": "U",
        "NORAD_CAT_ID": 26360,
        "ELEMENT_SET_NO": 999,
        "REV_AT_EPOCH": 18183,
        "BSTAR": 0,
        "MEAN_MOTION_DOT": -5.3e-07,
        "MEAN_MOTION_DDOT": 0
    },
    {
        "OBJECT_NAME": "NAVSTAR 48 (USA 151)",
        "OBJECT_ID": "2000-040A",
        "EPOCH": "2025-03-03T14:13:04.632672",
        "MEAN_MOTION": 2.00564033,
        "ECCENTRICITY": 0.0134679,
        "INCLINATION": 54.9737,
        "RA_OF_ASC_NODE": 233.8613,
        "ARG_OF_PERICENTER": 298.4936,
        "MEAN_ANOMALY": 26.9572,
        "EPHEMERIS_TYPE": 0,
        "CLASSIFICATION_TYPE": "U",
        "NORAD_CAT_ID": 26407,
        "ELEMENT_SET_NO": 999,
        "REV_AT_EPOCH": 18050,
        "BSTAR": 0,
        "MEAN_MOTION_DOT": 5.6e-07,
        "MEAN_MOTION_DDOT": 0
    },
    {
        "OBJECT_NAME": "NAVSTAR 49 (USA 154)",
        "OBJECT_ID": "2000-071A",
        "EPOCH": "2025-03-03T08:04:50.346912",
        "MEAN_MOTION": 2.00561831,
        "ECCENTRICITY": 0.0163403,
        "INCLINATION": 55.3745,
        "RA_OF_ASC_NODE": 113.5642,
        "ARG_OF_PERICENTER": 262.0041,
        "MEAN_ANOMALY": 168.6892,
        "EPHEMERIS_TYPE": 0,
        "CLASSIFICATION_TYPE": "U",
        "NORAD_CAT_ID": 26605,
        "ELEMENT_SET_NO": 999,
        "REV_AT_EPOCH": 17807,
        "BSTAR": 0,
        "MEAN_MOTION_DOT": 1.6e-07,
        "MEAN_MOTION_DDOT": 0
    },
    {
        "OBJECT_NAME": "NAVSTAR 50 (USA 156)",
        "OBJECT_ID": "2001-004A",
        "EPOCH": "2025-03-02T01:17:05.614080",
        "MEAN_MOTION": 1.91587949,
        "ECCENTRICITY": 0.0002884,
        "INCLINATION": 54.8434,
        "RA_OF_ASC_NODE": 49.9995,
        "ARG_OF_PERICENTER": 347.7089,
        "MEAN_ANOMALY": 191.3598,
        "EPHEMERIS_TYPE": 0,
        "CLASSIFICATION_TYPE": "U",
        "NORAD_CAT_ID": 26690,
        "ELEMENT_SET_NO": 999,
        "REV_AT_EPOCH": 17449,
        "BSTAR": 0,
        "MEAN_MOTION_DOT": -3.2e-07,
        "MEAN_MOTION_DDOT": 0
    },
    {
        "OBJECT_NAME": "NAVSTAR 51 (USA 166)",
        "OBJECT_ID": "2003-005A",
        "EPOCH": "2025-03-03T11:02:39.089760",
        "MEAN_MOTION": 2.00560005,
        "ECCENTRICITY": 0.0143532,
        "INCLINATION": 55.0095,
        "RA_OF_ASC_NODE": 233.6768,
        "ARG_OF_PERICENTER": 49.7474,
        "MEAN_ANOMALY": 321.0043,
        "EPHEMERIS_TYPE": 0,
        "CLASSIFICATION_TYPE": "U",
        "NORAD_CAT_ID": 27663,
        "ELEMENT_SET_NO": 999,
        "REV_AT_EPOCH": 16187,
        "BSTAR": 0,
        "MEAN_MOTION_DOT": 5.6e-07,
        "MEAN_MOTION_DDOT": 0
    },
    {
        "OBJECT_NAME": "NAVSTAR 52 (USA 168)",
        "OBJECT_ID": "2003-010A",
        "EPOCH": "2025-02-21T08:23:36.282336",
        "MEAN_MOTION": 2.00571704,
        "ECCENTRICITY": 0.0260937,
        "INCLINATION": 55.0333,
        "RA_OF_ASC_NODE": 343.7251,
        "ARG_OF_PERICENTER": 334.7378,
        "MEAN_ANOMALY": 153.1274,
        "EPHEMERIS_TYPE": 0,
        "CLASSIFICATION_TYPE": "U",
        "NORAD_CAT_ID": 27704,
        "ELEMENT_SET_NO": 999,
        "REV_AT_EPOCH": 16046,
        "BSTAR": 0,
        "MEAN_MOTION_DOT": -8.8e-07,
        "MEAN_MOTION_DDOT": 0
    },
    {
        "OBJECT_NAME": "NAVSTAR 53 (USA 175)",
        "OBJECT_ID": "2003-058A",
        "EPOCH": "2025-03-02T17:34:28.839936",
        "MEAN_MOTION": 2.00568548,
        "ECCENTRICITY": 0.0070573,
        "INCLINATION": 54.7177,
        "RA_OF_ASC_NODE": 40.8166,
        "ARG_OF_PERICENTER": 347.6555,
        "MEAN_ANOMALY": 12.1672,
        "EPHEMERIS_TYPE": 0,
        "CLASSIFICATION_TYPE": "U",
        "NORAD_CAT_ID": 28129,
        "ELEMENT_SET_NO": 999,
        "REV_AT_EPOCH": 15533,
        "BSTAR": 0,
        "MEAN_MOTION_DOT": -4.8e-07,
        "MEAN_MOTION_DDOT": 0
    },
    {
        "OBJECT_NAME": "NAVSTAR 54 (USA 177)",
        "OBJECT_ID": "2004-009A",
        "EPOCH": "2025-03-02T10:19:12.128736",
        "MEAN_MOTION": 2.00570356,
        "ECCENTRICITY": 0.0101147,
        "INCLINATION": 55.2291,
        "RA_OF_ASC_NODE": 294.6977,
        "ARG_OF_PERICENTER": 156.9712,
        "MEAN_ANOMALY": 344.6127,
        "EPHEMERIS_TYPE": 0,
        "CLASSIFICATION_TYPE": "U",
        "NORAD_CAT_ID": 28190,
        "ELEMENT_SET_NO": 999,
        "REV_AT_EPOCH": 15348,
        "BSTAR": 0,
        "MEAN_MOTION_DOT": -1.3e-07,
        "MEAN_MOTION_DDOT": 0
    },
    {
        "OBJECT_NAME": "NAVSTAR 55 (USA 178)",
        "OBJECT_ID": "2004-023A",
        "EPOCH": "2025-02-28T14:19:52.310208",
        "MEAN_MOTION": 2.00559338,
        "ECCENTRICITY": 0.0154995,
        "INCLINATION": 54.5551,
        "RA_OF_ASC_NODE": 105.8726,
        "ARG_OF_PERICENTER": 288.1224,
        "MEAN_ANOMALY": 146.9971,
        "EPHEMERIS_TYPE": 0,
        "CLASSIFICATION_TYPE": "U",
        "NORAD_CAT_ID": 28361,
        "ELEMENT_SET_NO": 999,
        "REV_AT_EPOCH": 15156,
        "BSTAR": 0,
        "MEAN_MOTION_DOT": 3.8e-07,
        "MEAN_MOTION_DDOT": 0
    },
    {
        "OBJECT_NAME": "NAVSTAR 56 (USA 180)",
        "OBJECT_ID": "2004-045A",
        "EPOCH": "2025-02-26T06:41:38.254272",
        "MEAN_MOTION": 2.00657055,
        "ECCENTRICITY": 0.0164349,
        "INCLINATION": 55.3623,
        "RA_OF_ASC_NODE": 344.0308,
        "ARG_OF_PERICENTER": 300.5074,
        "MEAN_ANOMALY": 134.4672,
        "EPHEMERIS_TYPE": 0,
        "CLASSIFICATION_TYPE": "U",
        "NORAD_CAT_ID": 28474,
        "ELEMENT_SET_NO": 999,
        "REV_AT_EPOCH": 14888,
        "BSTAR": 0,
        "MEAN_MOTION_DOT": -7.4e-07,
        "MEAN_MOTION_DDOT": 0
    },
    {
        "OBJECT_NAME": "NAVSTAR 57 (USA 183)",
        "OBJECT_ID": "2005-038A",
        "EPOCH": "2025-03-03T08:55:49.778688",
        "MEAN_MOTION": 2.0056766,
        "ECCENTRICITY": 0.0133816,
        "INCLINATION": 55.273,
        "RA_OF_ASC_NODE": 292.1294,
        "ARG_OF_PERICENTER": 289.3923,
        "MEAN_ANOMALY": 198.8642,
        "EPHEMERIS_TYPE": 0,
        "CLASSIFICATION_TYPE": "U",
        "NORAD_CAT_ID": 28874,
        "ELEMENT_SET_NO": 999,
        "REV_AT_EPOCH": 14239,
        "BSTAR": 0,
        "MEAN_MOTION_DOT": -1.3e-07,
        "MEAN_MOTION_DDOT": 0
    },
    {
        "OBJECT_NAME": "NAVSTAR 58 (USA 190)",
        "OBJECT_ID": "2006-042A",
        "EPOCH": "2025-03-03T08:22:28.759872",
        "MEAN_MOTION": 2.00568371,
        "ECCENTRICITY": 0.0104635,
        "INCLINATION": 54.6802,
        "RA_OF_ASC_NODE": 170.0177,
        "ARG_OF_PERICENTER": 45.2804,
        "MEAN_ANOMALY": 326.3826,
        "EPHEMERIS_TYPE": 0,
        "CLASSIFICATION_TYPE": "U",
        "NORAD_CAT_ID": 29486,
        "ELEMENT_SET_NO": 999,
        "REV_AT_EPOCH": 13495,
        "BSTAR": 0,
        "MEAN_MOTION_DOT": 2.8e-07,
        "MEAN_MOTION_DDOT": 0
    }
]